<?xml version="1.0" encoding="UTF-8"?>
<gpx version="1.1" creator="ActivSwitzerland" xmlns="http://www.topografix.com/GPX/1/1">
  <trk>
    <name>Col de la Givrine - St. Cergue</name>
    <trkseg>
      <trkpt lat="46.45019910896499" lon="6.09955980599571"></trkpt>
      <trkpt lat="46.45052080896501" lon="6.100356105996579"></trkpt>
      <trkpt lat="46.450935408965115" lon="6.101214405997506"></trkpt>
      <trkpt lat="46.45134870896514" lon="6.102158605998529"></trkpt>
      <trkpt lat="46.451577808965204" lon="6.102614605999015"></trkpt>
      <trkpt lat="46.45188090896538" lon="6.102727205999096"></trkpt>
      <trkpt lat="46.45210260896546" lon="6.102947205999311"></trkpt>
      <trkpt lat="46.45226530896552" lon="6.103011505999356"></trkpt>
      <trkpt lat="46.45247590896563" lon="6.103049105999361"></trkpt>
      <trkpt lat="46.452629108965745" lon="6.103071205999361"></trkpt>
      <trkpt lat="46.45270140896575" lon="6.103263705999575"></trkpt>
      <trkpt lat="46.452716108965625" lon="6.103805506000198"></trkpt>
      <trkpt lat="46.45281590896556" lon="6.104470706000957"></trkpt>
      <trkpt lat="46.452819608965534" lon="6.104851506001398"></trkpt>
      <trkpt lat="46.452793808965424" lon="6.105216306001828"></trkpt>
      <trkpt lat="46.4528381089654" lon="6.105409406002041"></trkpt>
      <trkpt lat="46.45294530896544" lon="6.105484506002113"></trkpt>
      <trkpt lat="46.45288980896539" lon="6.105758106002439"></trkpt>
      <trkpt lat="46.452790108965196" lon="6.106407206003207"></trkpt>
      <trkpt lat="46.45271610896506" lon="6.106798806003675"></trkpt>
      <trkpt lat="46.45256460896488" lon="6.107308406004295"></trkpt>
      <trkpt lat="46.45249810896478" lon="6.1077054060047695"></trkpt>
      <trkpt lat="46.45263670896478" lon="6.108115206005222"></trkpt>
      <trkpt lat="46.45277900896477" lon="6.108526206005673"></trkpt>
      <trkpt lat="46.452980008964865" lon="6.108728406005876"></trkpt>
      <trkpt lat="46.45323180896495" lon="6.108985406006124"></trkpt>
      <trkpt lat="46.45339580896501" lon="6.109256706006415"></trkpt>
      <trkpt lat="46.453605708965085" lon="6.109437906006588"></trkpt>
      <trkpt lat="46.45371630896509" lon="6.109543306006693"></trkpt>
      <trkpt lat="46.45388030896517" lon="6.109910506007086"></trkpt>
      <trkpt lat="46.453941308965135" lon="6.110219506007435"></trkpt>
      <trkpt lat="46.45400620896513" lon="6.110535606007793"></trkpt>
      <trkpt lat="46.45409010896507" lon="6.110916606008218"></trkpt>
      <trkpt lat="46.45421600896508" lon="6.111422506008787"></trkpt>
      <trkpt lat="46.45426940896503" lon="6.1116915060090875"></trkpt>
      <trkpt lat="46.45433430896506" lon="6.111831206009236"></trkpt>
      <trkpt lat="46.454429608965086" lon="6.112143506009584"></trkpt>
      <trkpt lat="46.454460508965056" lon="6.112270506009727"></trkpt>
      <trkpt lat="46.45459370896513" lon="6.112216906009643"></trkpt>
      <trkpt lat="46.42956540895245" lon="6.102129506002315"></trkpt>
      <trkpt lat="46.4294586089524" lon="6.102101306002304"></trkpt>
      <trkpt lat="46.429405208952375" lon="6.102084206002293"></trkpt>
      <trkpt lat="46.42922560895227" lon="6.10207080600231"></trkpt>
      <trkpt lat="46.429107708952216" lon="6.1020260060022755"></trkpt>
      <trkpt lat="46.42902370895219" lon="6.1019773060022375"></trkpt>
      <trkpt lat="46.42886140895206" lon="6.101934006002214"></trkpt>
      <trkpt lat="46.428688008951966" lon="6.101883406002187"></trkpt>
      <trkpt lat="46.42853550895192" lon="6.101860506002186"></trkpt>
      <trkpt lat="46.428421008951865" lon="6.101887706002239"></trkpt>
      <trkpt lat="46.428314208951754" lon="6.101914406002286"></trkpt>
      <trkpt lat="46.42810710895165" lon="6.101915206002323"></trkpt>
      <trkpt lat="46.42790990895155" lon="6.1018629060022995"></trkpt>
      <trkpt lat="46.42783360895151" lon="6.101830506002276"></trkpt>
      <trkpt lat="46.427600908951376" lon="6.101678806002137"></trkpt>
      <trkpt lat="46.427421608951335" lon="6.101501506001965"></trkpt>
      <trkpt lat="46.42734530895131" lon="6.10128310600172"></trkpt>
      <trkpt lat="46.42727280895126" lon="6.101227306001673"></trkpt>
      <trkpt lat="46.427093508951174" lon="6.101207706001677"></trkpt>
      <trkpt lat="46.426918308951116" lon="6.101073006001552"></trkpt>
      <trkpt lat="46.42683030895107" lon="6.101007506001493"></trkpt>
      <trkpt lat="46.42672730895103" lon="6.100954506001451"></trkpt>
      <trkpt lat="46.42663960895102" lon="6.100848706001343"></trkpt>
      <trkpt lat="46.42641360895085" lon="6.100780706001301"></trkpt>
      <trkpt lat="46.4263000089508" lon="6.100722306001253"></trkpt>
      <trkpt lat="46.426174208950755" lon="6.100687506001236"></trkpt>
      <trkpt lat="46.42614360895072" lon="6.100671306001224"></trkpt>
      <trkpt lat="46.42605860895067" lon="6.100542006001084"></trkpt>
      <trkpt lat="46.425808008950575" lon="6.100383806000944"></trkpt>
      <trkpt lat="46.425777408950594" lon="6.100354706000915"></trkpt>
      <trkpt lat="46.42565190895052" lon="6.100303206000882"></trkpt>
      <trkpt lat="46.42557610895051" lon="6.100096706000653"></trkpt>
      <trkpt lat="46.42561120895056" lon="6.099879506000392"></trkpt>
      <trkpt lat="46.425716608950616" lon="6.099807006000295"></trkpt>
      <trkpt lat="46.425846008950714" lon="6.0998875060003614"></trkpt>
      <trkpt lat="46.425888608950714" lon="6.099887506000359"></trkpt>
      <trkpt lat="46.425905208950816" lon="6.0996863060001205"></trkpt>
      <trkpt lat="46.42592550895082" lon="6.099517405999918"></trkpt>
      <trkpt lat="46.42602720895089" lon="6.099490505999869"></trkpt>
      <trkpt lat="46.426544208951206" lon="6.099511105999804"></trkpt>
      <trkpt lat="46.42690350895138" lon="6.099678305999932"></trkpt>
      <trkpt lat="46.42744150895164" lon="6.099978706000193"></trkpt>
      <trkpt lat="46.42770220895174" lon="6.100102106000287"></trkpt>
      <trkpt lat="46.42801840895191" lon="6.100209406000355"></trkpt>
      <trkpt lat="46.428310508952094" lon="6.100289806000396"></trkpt>
      <trkpt lat="46.42851380895219" lon="6.100359606000443"></trkpt>
      <trkpt lat="46.42902410895244" lon="6.1005366060005635"></trkpt>
      <trkpt lat="46.42927170895259" lon="6.100596006000585"></trkpt>
      <trkpt lat="46.4295047089527" lon="6.100670706000633"></trkpt>
      <trkpt lat="46.429637908952785" lon="6.1006327060005665"></trkpt>
      <trkpt lat="46.42985530895292" lon="6.100563006000447"></trkpt>
      <trkpt lat="46.4301592089531" lon="6.1004803060002954"></trkpt>
      <trkpt lat="46.430506708953345" lon="6.100383706000126"></trkpt>
      <trkpt lat="46.430737808953474" lon="6.100289805999972"></trkpt>
      <trkpt lat="46.43095780895365" lon="6.1001155059997325"></trkpt>
      <trkpt lat="46.43108170895372" lon="6.100002805999581"></trkpt>
      <trkpt lat="46.43113340895379" lon="6.099927705999486"></trkpt>
      <trkpt lat="46.43123880895394" lon="6.09953340599901"></trkpt>
      <trkpt lat="46.43133310895405" lon="6.09915530599855"></trkpt>
      <trkpt lat="46.43139220895413" lon="6.09889780599824"></trkpt>
      <trkpt lat="46.43146430895426" lon="6.0985571059978305"></trkpt>
      <trkpt lat="46.43153640895436" lon="6.098200405997406"></trkpt>
      <trkpt lat="46.43161590895446" lon="6.0979080059970485"></trkpt>
      <trkpt lat="46.43172130895453" lon="6.097674705996758"></trkpt>
      <trkpt lat="46.43188950895468" lon="6.097395705996407"></trkpt>
      <trkpt lat="46.43203740895484" lon="6.0971327059960725"></trkpt>
      <trkpt lat="46.43211690895493" lon="6.09689950599579"></trkpt>
      <trkpt lat="46.43230060895508" lon="6.0967135059955435"></trkpt>
      <trkpt lat="46.432586408955316" lon="6.0964355059951645"></trkpt>
      <trkpt lat="46.43285820895549" lon="6.096196805994844"></trkpt>
      <trkpt lat="46.433139208955716" lon="6.096025105994596"></trkpt>
      <trkpt lat="46.43331530895577" lon="6.096005005994543"></trkpt>
      <trkpt lat="46.433448808955895" lon="6.095873805994361"></trkpt>
      <trkpt lat="46.43355560895599" lon="6.095687405994127"></trkpt>
      <trkpt lat="46.433612408956094" lon="6.09547260599387"></trkpt>
      <trkpt lat="46.43369000895614" lon="6.095215105993552"></trkpt>
      <trkpt lat="46.43373810895622" lon="6.095024705993325"></trkpt>
      <trkpt lat="46.43374730895629" lon="6.094799305993061"></trkpt>
      <trkpt lat="46.433699308956314" lon="6.094563305992792"></trkpt>
      <trkpt lat="46.433828708956376" lon="6.0944104059925985"></trkpt>
      <trkpt lat="46.433989508956564" lon="6.094150305992267"></trkpt>
      <trkpt lat="46.434127808956674" lon="6.093827205991863"></trkpt>
      <trkpt lat="46.43428800895683" lon="6.093462905991414"></trkpt>
      <trkpt lat="46.43433330895693" lon="6.093219505991121"></trkpt>
      <trkpt lat="46.43443320895703" lon="6.093047905990904"></trkpt>
      <trkpt lat="46.434547808957134" lon="6.092801105990597"></trkpt>
      <trkpt lat="46.434629108957225" lon="6.092578505990328"></trkpt>
      <trkpt lat="46.4347012089573" lon="6.092339805990032"></trkpt>
      <trkpt lat="46.43474000895735" lon="6.092111805989763"></trkpt>
      <trkpt lat="46.43480100895748" lon="6.091749705989335"></trkpt>
      <trkpt lat="46.43480660895753" lon="6.091473405989009"></trkpt>
      <trkpt lat="46.43477250895755" lon="6.091250905988753"></trkpt>
      <trkpt lat="46.43477510895756" lon="6.091154205988646"></trkpt>
      <trkpt lat="46.43490450895769" lon="6.090998705988442"></trkpt>
      <trkpt lat="46.435107908957846" lon="6.090765305988135"></trkpt>
      <trkpt lat="46.435398108958054" lon="6.090486405987757"></trkpt>
      <trkpt lat="46.43552190895815" lon="6.090352205987578"></trkpt>
      <trkpt lat="46.4355238089582" lon="6.090151105987348"></trkpt>
      <trkpt lat="46.43548130895822" lon="6.089899005987061"></trkpt>
      <trkpt lat="46.435503408958255" lon="6.089756805986892"></trkpt>
      <trkpt lat="46.4355885089583" lon="6.089719205986832"></trkpt>
      <trkpt lat="46.435764108958416" lon="6.089799705986895"></trkpt>
      <trkpt lat="46.43589020895849" lon="6.089821805986897"></trkpt>
      <trkpt lat="46.43614670895862" lon="6.089751405986772"></trkpt>
      <trkpt lat="46.43622440895873" lon="6.089751405986755"></trkpt>
      <trkpt lat="46.43635560895875" lon="6.089823805986817"></trkpt>
      <trkpt lat="46.43650720895878" lon="6.08999550598699"></trkpt>
      <trkpt lat="46.43670130895884" lon="6.090266405987273"></trkpt>
      <trkpt lat="46.43691570895893" lon="6.0907143059877535"></trkpt>
      <trkpt lat="46.43717630895897" lon="6.091154205988222"></trkpt>
      <trkpt lat="46.43738170895905" lon="6.091546105988641"></trkpt>
      <trkpt lat="46.437515308959085" lon="6.091686705988783"></trkpt>
      <trkpt lat="46.437638408959124" lon="6.091760405988849"></trkpt>
      <trkpt lat="46.437740308959185" lon="6.091723905988784"></trkpt>
      <trkpt lat="46.43782700895924" lon="6.09165310598869"></trkpt>
      <trkpt lat="46.43786240895929" lon="6.09152270598853"></trkpt>
      <trkpt lat="46.43794630895939" lon="6.091329605988292"></trkpt>
      <trkpt lat="46.438015508959445" lon="6.091258805988201"></trkpt>
      <trkpt lat="46.43814470895951" lon="6.091262305988181"></trkpt>
      <trkpt lat="46.43846280895963" lon="6.091626305988545"></trkpt>
      <trkpt lat="46.438595908959684" lon="6.091728205988641"></trkpt>
      <trkpt lat="46.43890270895985" lon="6.0917497059886125"></trkpt>
      <trkpt lat="46.439041408959966" lon="6.091779205988626"></trkpt>
      <trkpt lat="46.43922070895999" lon="6.091843605988671"></trkpt>
      <trkpt lat="46.43944250896015" lon="6.092001805988813"></trkpt>
      <trkpt lat="46.43960140896015" lon="6.092106405988902"></trkpt>
      <trkpt lat="46.4398380089603" lon="6.0921896059889615"></trkpt>
      <trkpt lat="46.44010790896048" lon="6.092256605988993"></trkpt>
      <trkpt lat="46.44024830896053" lon="6.092207005988909"></trkpt>
      <trkpt lat="46.44033340896061" lon="6.092162705988842"></trkpt>
      <trkpt lat="46.44041470896069" lon="6.092036705988683"></trkpt>
      <trkpt lat="46.44049970896074" lon="6.091969605988591"></trkpt>
      <trkpt lat="46.44061060896083" lon="6.09180870598838"></trkpt>
      <trkpt lat="46.44071580896093" lon="6.091649505988176"></trkpt>
      <trkpt lat="46.440839808961" lon="6.091596805988092"></trkpt>
      <trkpt lat="46.44094150896109" lon="6.091494905987957"></trkpt>
      <trkpt lat="46.4410524089612" lon="6.091360805987783"></trkpt>
      <trkpt lat="46.44117800896128" lon="6.091256105987642"></trkpt>
      <trkpt lat="46.44123530896133" lon="6.091138105987491"></trkpt>
      <trkpt lat="46.44130190896136" lon="6.091036205987361"></trkpt>
      <trkpt lat="46.441387208961444" lon="6.090932805987226"></trkpt>
      <trkpt lat="46.44145580896159" lon="6.090827505987089"></trkpt>
      <trkpt lat="46.44149960896155" lon="6.090762605987009"></trkpt>
      <trkpt lat="46.441497808961614" lon="6.090608105986829"></trkpt>
      <trkpt lat="46.44157030896166" lon="6.090561405986764"></trkpt>
      <trkpt lat="46.44165800896174" lon="6.090431205986596"></trkpt>
      <trkpt lat="46.441722908961765" lon="6.090345905986488"></trkpt>
      <trkpt lat="46.442016608961985" lon="6.090168505986225"></trkpt>
      <trkpt lat="46.44230180896216" lon="6.09004110598603"></trkpt>
      <trkpt lat="46.44238280896224" lon="6.089947705985908"></trkpt>
      <trkpt lat="46.4425621089624" lon="6.089675905985562"></trkpt>
      <trkpt lat="46.44273610896252" lon="6.089456405985277"></trkpt>
      <trkpt lat="46.442871108962635" lon="6.089314205985082"></trkpt>
      <trkpt lat="46.44294320896269" lon="6.089169405984905"></trkpt>
      <trkpt lat="46.442993208962754" lon="6.088994005984691"></trkpt>
      <trkpt lat="46.44305040896283" lon="6.088752305984399"></trkpt>
      <trkpt lat="46.44312670896295" lon="6.088588205984195"></trkpt>
      <trkpt lat="46.44329430896302" lon="6.088429105983978"></trkpt>
      <trkpt lat="46.44341080896316" lon="6.08830840598382"></trkpt>
      <trkpt lat="46.443497608963234" lon="6.088107205983571"></trkpt>
      <trkpt lat="46.44359000896331" lon="6.0879463059833725"></trkpt>
      <trkpt lat="46.44372310896341" lon="6.087812205983189"></trkpt>
      <trkpt lat="46.44382100896347" lon="6.0877466059831"></trkpt>
      <trkpt lat="46.44391630896354" lon="6.08774710598308"></trkpt>
      <trkpt lat="46.4440956089636" lon="6.087885905983212"></trkpt>
      <trkpt lat="46.4442825089637" lon="6.088011305983322"></trkpt>
      <trkpt lat="46.4444237089638" lon="6.088131905983439"></trkpt>
      <trkpt lat="46.44454560896382" lon="6.088254805983558"></trkpt>
      <trkpt lat="46.44477470896398" lon="6.0882521059835195"></trkpt>
      <trkpt lat="46.444906008964026" lon="6.088249405983489"></trkpt>
      <trkpt lat="46.445007608964055" lon="6.088356705983597"></trkpt>
      <trkpt lat="46.445218308964115" lon="6.088748305984018"></trkpt>
      <trkpt lat="46.445319908964144" lon="6.089008505984298"></trkpt>
      <trkpt lat="46.44544190896414" lon="6.089287405984602"></trkpt>
      <trkpt lat="46.44549180896413" lon="6.089451005984785"></trkpt>
      <trkpt lat="46.44554140896411" lon="6.089640605984997"></trkpt>
      <trkpt lat="46.44559350896414" lon="6.089858705985239"></trkpt>
      <trkpt lat="46.44573210896418" lon="6.090049205985439"></trkpt>
      <trkpt lat="46.445822608964185" lon="6.090196705985593"></trkpt>
      <trkpt lat="46.446315808964385" lon="6.090813205986223"></trkpt>
      <trkpt lat="46.44638440896443" lon="6.090849405986256"></trkpt>
      <trkpt lat="46.446449308964425" lon="6.09089040598629"></trkpt>
      <trkpt lat="46.446575208964504" lon="6.091039705986441"></trkpt>
      <trkpt lat="46.4466667089645" lon="6.091195105986604"></trkpt>
      <trkpt lat="46.44678370896452" lon="6.091454605986886"></trkpt>
      <trkpt lat="46.446944508964535" lon="6.091865005987336"></trkpt>
      <trkpt lat="46.447128308964565" lon="6.092396305987919"></trkpt>
      <trkpt lat="46.44734950896456" lon="6.092978505988561"></trkpt>
      <trkpt lat="46.44748310896456" lon="6.093329005988948"></trkpt>
      <trkpt lat="46.44758220896454" lon="6.093655105989305"></trkpt>
      <trkpt lat="46.44765850896456" lon="6.093910205989591"></trkpt>
      <trkpt lat="46.44769670896453" lon="6.09422830598995"></trkpt>
      <trkpt lat="46.447702208964465" lon="6.094402405990154"></trkpt>
      <trkpt lat="46.44772620896445" lon="6.094718905990516"></trkpt>
      <trkpt lat="46.4477207089644" lon="6.094949605990789"></trkpt>
      <trkpt lat="46.44771880896438" lon="6.095134605990999"></trkpt>
      <trkpt lat="46.44773860896434" lon="6.095275405991163"></trkpt>
      <trkpt lat="46.447778008964356" lon="6.095443105991353"></trkpt>
      <trkpt lat="46.44793320896434" lon="6.095923205991886"></trkpt>
      <trkpt lat="46.44801820896433" lon="6.096245105992242"></trkpt>
      <trkpt lat="46.44813830896437" lon="6.0964972059925095"></trkpt>
      <trkpt lat="46.4483109089644" lon="6.096746905992772"></trkpt>
      <trkpt lat="46.4484987089645" lon="6.09701220599305"></trkpt>
      <trkpt lat="46.44869460896452" lon="6.097264305993307"></trkpt>
      <trkpt lat="46.4489071089646" lon="6.09752180599357"></trkpt>
      <trkpt lat="46.44907710896465" lon="6.097725605993778"></trkpt>
      <trkpt lat="46.44923790896469" lon="6.098031405994101"></trkpt>
      <trkpt lat="46.449319208964724" lon="6.098184305994264"></trkpt>
      <trkpt lat="46.449433808964734" lon="6.0983828059944765"></trkpt>
      <trkpt lat="46.44963340896485" lon="6.098557105994642"></trkpt>
      <trkpt lat="46.4497757089649" lon="6.098667105994748"></trkpt>
      <trkpt lat="46.449935908964946" lon="6.098907005994998"></trkpt>
      <trkpt lat="46.45006180896496" lon="6.09925410599538"></trkpt>
      <trkpt lat="46.45018010896497" lon="6.09954070599569"></trkpt>
      <trkpt lat="46.430649808948104" lon="6.128381206032631"></trkpt>
      <trkpt lat="46.43046570894808" lon="6.128052706032283"></trkpt>
      <trkpt lat="46.43020250894797" lon="6.12769270603191"></trkpt>
      <trkpt lat="46.42985650894784" lon="6.127328006031552"></trkpt>
      <trkpt lat="46.42968750894783" lon="6.127050906031258"></trkpt>
      <trkpt lat="46.42962730894783" lon="6.12671110603087"></trkpt>
      <trkpt lat="46.42958480894789" lon="6.126515306030654"></trkpt>
      <trkpt lat="46.42946460894782" lon="6.126332906030466"></trkpt>
      <trkpt lat="46.42930010894773" lon="6.126123706030252"></trkpt>
      <trkpt lat="46.429196508947776" lon="6.125799206029891"></trkpt>
      <trkpt lat="46.42918780894782" lon="6.125448206029483"></trkpt>
      <trkpt lat="46.429279708947874" lon="6.125466606029489"></trkpt>
      <trkpt lat="46.42935920894792" lon="6.1253915060293895"></trkpt>
      <trkpt lat="46.42959590894803" lon="6.12548690602946"></trkpt>
      <trkpt lat="46.42979370894816" lon="6.125635606029599"></trkpt>
      <trkpt lat="46.42988610894815" lon="6.12583400602981"></trkpt>
      <trkpt lat="46.42989720894817" lon="6.125742906029696"></trkpt>
      <trkpt lat="46.42976960894813" lon="6.125488006029429"></trkpt>
      <trkpt lat="46.429640208948214" lon="6.1248550060287155"></trkpt>
      <trkpt lat="46.429531108948254" lon="6.124232806028015"></trkpt>
      <trkpt lat="46.42942210894832" lon="6.123564906027254"></trkpt>
      <trkpt lat="46.42932960894839" lon="6.122969406026575"></trkpt>
      <trkpt lat="46.429274208948414" lon="6.122610006026173"></trkpt>
      <trkpt lat="46.429390608948495" lon="6.122395506025901"></trkpt>
      <trkpt lat="46.42949600894858" lon="6.122277406025747"></trkpt>
      <trkpt lat="46.42946620894866" lon="6.122047406025483"></trkpt>
      <trkpt lat="46.429411008948705" lon="6.121690006025082"></trkpt>
      <trkpt lat="46.42930980894871" lon="6.121122806024441"></trkpt>
      <trkpt lat="46.42925750894876" lon="6.120796906024067"></trkpt>
      <trkpt lat="46.42921450894882" lon="6.120452906023674"></trkpt>
      <trkpt lat="46.429168708948794" lon="6.12004610602321"></trkpt>
      <trkpt lat="46.429134408948926" lon="6.119598906022697"></trkpt>
      <trkpt lat="46.429157308949" lon="6.119193606022224"></trkpt>
      <trkpt lat="46.42917620894905" lon="6.1189086060218925"></trkpt>
      <trkpt lat="46.42929080894918" lon="6.118481206021374"></trkpt>
      <trkpt lat="46.42942020894938" lon="6.117900106020674"></trkpt>
      <trkpt lat="46.4294815089495" lon="6.117591906020308"></trkpt>
      <trkpt lat="46.42956630894963" lon="6.117103506019722"></trkpt>
      <trkpt lat="46.429684608949785" lon="6.116642106019164"></trkpt>
      <trkpt lat="46.42986950894993" lon="6.1163203060187605"></trkpt>
      <trkpt lat="46.429897208949996" lon="6.116199606018614"></trkpt>
      <trkpt lat="46.429943108950056" lon="6.116010706018384"></trkpt>
      <trkpt lat="46.429950708950145" lon="6.115763706018097"></trkpt>
      <trkpt lat="46.429927808950126" lon="6.115533806017838"></trkpt>
      <trkpt lat="46.429874408950184" lon="6.115242506017504"></trkpt>
      <trkpt lat="46.42977910895015" lon="6.114971206017209"></trkpt>
      <trkpt lat="46.4296069089501" lon="6.114778006017015"></trkpt>
      <trkpt lat="46.42944240895005" lon="6.114501706016722"></trkpt>
      <trkpt lat="46.429351808950045" lon="6.114279306016481"></trkpt>
      <trkpt lat="46.42926030895004" lon="6.113940206016103"></trkpt>
      <trkpt lat="46.429192808950106" lon="6.113522706015628"></trkpt>
      <trkpt lat="46.42918170895009" lon="6.113206206015263"></trkpt>
      <trkpt lat="46.42914580895015" lon="6.11292270601494"></trkpt>
      <trkpt lat="46.42919920895026" lon="6.112703806014674"></trkpt>
      <trkpt lat="46.429272308950374" lon="6.112181606014057"></trkpt>
      <trkpt lat="46.42934800895051" lon="6.111739606013528"></trkpt>
      <trkpt lat="46.429473908950655" lon="6.111441606013158"></trkpt>
      <trkpt lat="46.42959980895074" lon="6.111301406012976"></trkpt>
      <trkpt lat="46.42973330895087" lon="6.11106970601268"></trkpt>
      <trkpt lat="46.42985920895099" lon="6.110920406012487"></trkpt>
      <trkpt lat="46.42999650895109" lon="6.1107836060123"></trkpt>
      <trkpt lat="46.43017580895121" lon="6.110703906012176"></trkpt>
      <trkpt lat="46.43029790895129" lon="6.110632406012075"></trkpt>
      <trkpt lat="46.43033600895131" lon="6.110593306012024"></trkpt>
      <trkpt lat="46.43018190895121" lon="6.110599106012053"></trkpt>
      <trkpt lat="46.42979050895097" lon="6.110778806012332"></trkpt>
      <trkpt lat="46.4295845089508" lon="6.110888006012497"></trkpt>
      <trkpt lat="46.4294090089507" lon="6.110825506012458"></trkpt>
      <trkpt lat="46.429264108950676" lon="6.110701106012338"></trkpt>
      <trkpt lat="46.42916490895064" lon="6.110572306012202"></trkpt>
      <trkpt lat="46.4290428089506" lon="6.110419806012046"></trkpt>
      <trkpt lat="46.428978008950565" lon="6.110375406012009"></trkpt>
      <trkpt lat="46.42889020895051" lon="6.110289606011926"></trkpt>
      <trkpt lat="46.428859708950576" lon="6.110104606011716"></trkpt>
      <trkpt lat="46.428867308950544" lon="6.109962906011546"></trkpt>
      <trkpt lat="46.42882920895059" lon="6.1098275060114"></trkpt>
      <trkpt lat="46.4287834089506" lon="6.109579606011118"></trkpt>
      <trkpt lat="46.428756708950644" lon="6.109283406010775"></trkpt>
      <trkpt lat="46.42881200895068" lon="6.109156106010618"></trkpt>
      <trkpt lat="46.428844508950704" lon="6.109062706010504"></trkpt>
      <trkpt lat="46.42884060895076" lon="6.108977306010406"></trkpt>
      <trkpt lat="46.428688008950694" lon="6.108718406010137"></trkpt>
      <trkpt lat="46.428463008950615" lon="6.108600606010036"></trkpt>
      <trkpt lat="46.42817310895049" lon="6.10827920600971"></trkpt>
      <trkpt lat="46.42800520895042" lon="6.108059406009485"></trkpt>
      <trkpt lat="46.42760850895028" lon="6.1076760060091075"></trkpt>
      <trkpt lat="46.42750550895023" lon="6.107585906009025"></trkpt>
      <trkpt lat="46.427082108950046" lon="6.10713240600857"></trkpt>
      <trkpt lat="46.42685320894998" lon="6.106930306008377"></trkpt>
      <trkpt lat="46.42671200894993" lon="6.106703806008139"></trkpt>
      <trkpt lat="46.426658608949914" lon="6.106584106008009"></trkpt>
      <trkpt lat="46.42684940895002" lon="6.106525906007904"></trkpt>
      <trkpt lat="46.427055708950164" lon="6.106479206007814"></trkpt>
      <trkpt lat="46.427166008950245" lon="6.106402906007711"></trkpt>
      <trkpt lat="46.42727660895034" lon="6.106337506007615"></trkpt>
      <trkpt lat="46.42735670895038" lon="6.106446706007725"></trkpt>
      <trkpt lat="46.42742540895036" lon="6.106592206007881"></trkpt>
      <trkpt lat="46.42766950895049" lon="6.106630806007882"></trkpt>
      <trkpt lat="46.4277840089506" lon="6.1064911060077"></trkpt>
      <trkpt lat="46.42785260895065" lon="6.106355706007534"></trkpt>
      <trkpt lat="46.427951808950745" lon="6.106314206007463"></trkpt>
      <trkpt lat="46.428048508950795" lon="6.106270006007397"></trkpt>
      <trkpt lat="46.42808150895083" lon="6.106143506007247"></trkpt>
      <trkpt lat="46.42814250895088" lon="6.106094806007175"></trkpt>
      <trkpt lat="46.42816680895085" lon="6.106160006007248"></trkpt>
      <trkpt lat="46.42832180895097" lon="6.106079606007133"></trkpt>
      <trkpt lat="46.428386708951" lon="6.105975606006996"></trkpt>
      <trkpt lat="46.42848210895111" lon="6.105789206006761"></trkpt>
      <trkpt lat="46.42859750895124" lon="6.1055726060064925"></trkpt>
      <trkpt lat="46.42865370895128" lon="6.1054811060063745"></trkpt>
      <trkpt lat="46.42881380895137" lon="6.105451906006311"></trkpt>
      <trkpt lat="46.42884450895142" lon="6.105429206006277"></trkpt>
      <trkpt lat="46.4289551089515" lon="6.105480706006319"></trkpt>
      <trkpt lat="46.4289932089515" lon="6.105474006006308"></trkpt>
      <trkpt lat="46.42906570895157" lon="6.105406806006216"></trkpt>
      <trkpt lat="46.429203008951674" lon="6.105335206006108"></trkpt>
      <trkpt lat="46.42938690895178" lon="6.105320506006059"></trkpt>
      <trkpt lat="46.42949970895185" lon="6.105272206005983"></trkpt>
      <trkpt lat="46.42960140895191" lon="6.105186406005867"></trkpt>
      <trkpt lat="46.429692008951996" lon="6.105073806005716"></trkpt>
      <trkpt lat="46.429773308952036" lon="6.105006706005628"></trkpt>
      <trkpt lat="46.42986300895209" lon="6.104962306005558"></trkpt>
      <trkpt lat="46.42993160895215" lon="6.104824506005388"></trkpt>
      <trkpt lat="46.42998780895223" lon="6.104743806005281"></trkpt>
      <trkpt lat="46.4300636089523" lon="6.104609706005115"></trkpt>
      <trkpt lat="46.43015290895235" lon="6.104416806004873"></trkpt>
      <trkpt lat="46.43024440895249" lon="6.104313906004738"></trkpt>
      <trkpt lat="46.430352008952575" lon="6.104180606004567"></trkpt>
      <trkpt lat="46.4304810089526" lon="6.104172206004531"></trkpt>
      <trkpt lat="46.43054960895267" lon="6.104115006004455"></trkpt>
      <trkpt lat="46.430673608952745" lon="6.1039821060042785"></trkpt>
      <trkpt lat="46.4307480089528" lon="6.103934306004211"></trkpt>
      <trkpt lat="46.430896808952916" lon="6.103857006004091"></trkpt>
      <trkpt lat="46.43102670895296" lon="6.103845306004058"></trkpt>
      <trkpt lat="46.43114470895304" lon="6.103839906004027"></trkpt>
      <trkpt lat="46.43124390895313" lon="6.103817906003988"></trkpt>
      <trkpt lat="46.43132440895319" lon="6.103799706003954"></trkpt>
      <trkpt lat="46.43139280895317" lon="6.103842606003987"></trkpt>
      <trkpt lat="46.43146900895325" lon="6.10386850600401"></trkpt>
      <trkpt lat="46.431537008953256" lon="6.103898906004029"></trkpt>
      <trkpt lat="46.43161460895331" lon="6.103925806004045"></trkpt>
      <trkpt lat="46.43170700895338" lon="6.103931106004035"></trkpt>
      <trkpt lat="46.431831408953464" lon="6.103922406004004"></trkpt>
      <trkpt lat="46.43190380895351" lon="6.103892306003955"></trkpt>
      <trkpt lat="46.431903808953535" lon="6.103820306003871"></trkpt>
      <trkpt lat="46.431930508953506" lon="6.103814606003863"></trkpt>
      <trkpt lat="46.4320335089536" lon="6.1038423060038784"></trkpt>
      <trkpt lat="46.43210600895359" lon="6.103868506003892"></trkpt>
      <trkpt lat="46.43215180895364" lon="6.103879906003901"></trkpt>
      <trkpt lat="46.432232008953704" lon="6.103907006003919"></trkpt>
      <trkpt lat="46.43230440895374" lon="6.103885706003882"></trkpt>
      <trkpt lat="46.43238830895375" lon="6.103869006003842"></trkpt>
      <trkpt lat="46.43239970895382" lon="6.103816006003782"></trkpt>
      <trkpt lat="46.432426508953796" lon="6.103719706003665"></trkpt>
      <trkpt lat="46.43244170895385" lon="6.1036472060035765"></trkpt>
      <trkpt lat="46.432472208953854" lon="6.103702106003635"></trkpt>
      <trkpt lat="46.432487508953855" lon="6.103751706003692"></trkpt>
      <trkpt lat="46.432540908953875" lon="6.103751706003686"></trkpt>
      <trkpt lat="46.432556208953905" lon="6.103657206003568"></trkpt>
      <trkpt lat="46.432594308953945" lon="6.103546606003436"></trkpt>
      <trkpt lat="46.432583308953944" lon="6.103464406003338"></trkpt>
      <trkpt lat="46.432546308953945" lon="6.103389306003261"></trkpt>
      <trkpt lat="46.43247990895397" lon="6.103297206003168"></trkpt>
      <trkpt lat="46.432384508953895" lon="6.103254806003133"></trkpt>
      <trkpt lat="46.43235400895387" lon="6.103150806003018"></trkpt>
      <trkpt lat="46.43236160895394" lon="6.103108406002964"></trkpt>
      <trkpt lat="46.43223570895386" lon="6.102980606002837"></trkpt>
      <trkpt lat="46.43216710895386" lon="6.102795606002636"></trkpt>
      <trkpt lat="46.43211360895383" lon="6.102680206002513"></trkpt>
      <trkpt lat="46.432075508953844" lon="6.10261060600244"></trkpt>
      <trkpt lat="46.4319878089538" lon="6.10249610600232"></trkpt>
      <trkpt lat="46.4319267089538" lon="6.102430306002255"></trkpt>
      <trkpt lat="46.431831408953755" lon="6.102290206002108"></trkpt>
      <trkpt lat="46.43168640895367" lon="6.10219530600202"></trkpt>
      <trkpt lat="46.43151470895358" lon="6.102092706001936"></trkpt>
      <trkpt lat="46.431369808953555" lon="6.102051706001911"></trkpt>
      <trkpt lat="46.431137608953435" lon="6.101938206001821"></trkpt>
      <trkpt lat="46.43104170895335" lon="6.101926306001825"></trkpt>
      <trkpt lat="46.43094640895333" lon="6.101988306001913"></trkpt>
      <trkpt lat="46.43092730895331" lon="6.10201260600194"></trkpt>
      <trkpt lat="46.4308586089532" lon="6.102017406001961"></trkpt>
      <trkpt lat="46.4307518089532" lon="6.102037906002001"></trkpt>
      <trkpt lat="46.4306478089531" lon="6.102080406002075"></trkpt>
      <trkpt lat="46.430511508953" lon="6.102112806002129"></trkpt>
      <trkpt lat="46.430492408952986" lon="6.102177106002213"></trkpt>
      <trkpt lat="46.43057250895305" lon="6.102244406002274"></trkpt>
      <trkpt lat="46.43061450895304" lon="6.102336406002376"></trkpt>
      <trkpt lat="46.430622108953024" lon="6.102405106002454"></trkpt>
      <trkpt lat="46.43057630895299" lon="6.102484206002556"></trkpt>
      <trkpt lat="46.43052290895296" lon="6.102488006002567"></trkpt>
      <trkpt lat="46.430481008952924" lon="6.102488006002572"></trkpt>
      <trkpt lat="46.43034740895287" lon="6.102408406002507"></trkpt>
      <trkpt lat="46.43025970895283" lon="6.102369806002474"></trkpt>
      <trkpt lat="46.43015600895275" lon="6.102396906002522"></trkpt>
      <trkpt lat="46.43006520895271" lon="6.102361706002501"></trkpt>
      <trkpt lat="46.429889708952636" lon="6.1022758060024325"></trkpt>
      <trkpt lat="46.42972560895256" lon="6.102210506002384"></trkpt>
      <trkpt lat="46.429664608952514" lon="6.102196206002379"></trkpt>
      <trkpt lat="46.42956540895245" lon="6.102129506002315"></trkpt>
      <trkpt lat="46.44850680895245" lon="6.160178806066362"></trkpt>
      <trkpt lat="46.448654208952696" lon="6.159453906065493"></trkpt>
      <trkpt lat="46.448423608952616" lon="6.159210506065257"></trkpt>
      <trkpt lat="46.448087308952424" lon="6.159009306065082"></trkpt>
      <trkpt lat="46.44780080895234" lon="6.158872506064971"></trkpt>
      <trkpt lat="46.44754760895222" lon="6.158762606064894"></trkpt>
      <trkpt lat="46.44741090895215" lon="6.158746506064897"></trkpt>
      <trkpt lat="46.447314808952044" lon="6.158789406064967"></trkpt>
      <trkpt lat="46.447204608951964" lon="6.158685206064867"></trkpt>
      <trkpt lat="46.447080108951916" lon="6.158607006064796"></trkpt>
      <trkpt lat="46.44694150895188" lon="6.158494406064687"></trkpt>
      <trkpt lat="46.446771408951804" lon="6.158387106064592"></trkpt>
      <trkpt lat="46.44649790895169" lon="6.15831460606456"></trkpt>
      <trkpt lat="46.446312008951566" lon="6.1582799060645526"></trkpt>
      <trkpt lat="46.44614310895148" lon="6.158204706064496"></trkpt>
      <trkpt lat="46.445978608951364" lon="6.15817790606449"></trkpt>
      <trkpt lat="46.44585110895133" lon="6.158126906064454"></trkpt>
      <trkpt lat="46.4456681089512" lon="6.158116206064477"></trkpt>
      <trkpt lat="46.445649608951214" lon="6.158025006064374"></trkpt>
      <trkpt lat="46.44567550895132" lon="6.157625306063908"></trkpt>
      <trkpt lat="46.44573460895154" lon="6.156560506062661"></trkpt>
      <trkpt lat="46.445779008951696" lon="6.15610990606213"></trkpt>
      <trkpt lat="46.445788208951875" lon="6.1551979060610735"></trkpt>
      <trkpt lat="46.44590470895205" lon="6.154465706060203"></trkpt>
      <trkpt lat="46.44601370895222" lon="6.153964106059603"></trkpt>
      <trkpt lat="46.446087608952304" lon="6.15355910605912"></trkpt>
      <trkpt lat="46.44598970895233" lon="6.153121906058629"></trkpt>
      <trkpt lat="46.44594350895238" lon="6.152794706058258"></trkpt>
      <trkpt lat="46.44586210895242" lon="6.152660606058117"></trkpt>
      <trkpt lat="46.44565700895228" lon="6.152569406058049"></trkpt>
      <trkpt lat="46.44551470895221" lon="6.152424306057905"></trkpt>
      <trkpt lat="46.445418608952146" lon="6.1523709060578575"></trkpt>
      <trkpt lat="46.44537420895222" lon="6.152220706057691"></trkpt>
      <trkpt lat="46.44536130895222" lon="6.151684206057073"></trkpt>
      <trkpt lat="46.44532620895233" lon="6.15132210605666"></trkpt>
      <trkpt lat="46.44531140895236" lon="6.150898306056169"></trkpt>
      <trkpt lat="46.44530400895246" lon="6.1505416060557625"></trkpt>
      <trkpt lat="46.44537420895262" lon="6.149884506054984"></trkpt>
      <trkpt lat="46.44542410895273" lon="6.149431206054453"></trkpt>
      <trkpt lat="46.44550550895288" lon="6.14886790605378"></trkpt>
      <trkpt lat="46.44558120895301" lon="6.14830730605312"></trkpt>
      <trkpt lat="46.44565150895315" lon="6.147867406052599"></trkpt>
      <trkpt lat="46.44585660895341" lon="6.147261306051858"></trkpt>
      <trkpt lat="46.445987808953525" lon="6.14704130605158"></trkpt>
      <trkpt lat="46.44604330895363" lon="6.146716806051194"></trkpt>
      <trkpt lat="46.44608580895373" lon="6.146153506050526"></trkpt>
      <trkpt lat="46.446144908953904" lon="6.145568806049841"></trkpt>
      <trkpt lat="46.44621880895406" lon="6.145040406049217"></trkpt>
      <trkpt lat="46.446302008954184" lon="6.144359106048409"></trkpt>
      <trkpt lat="46.446383308954395" lon="6.143667106047596"></trkpt>
      <trkpt lat="46.44643140895451" lon="6.143197706047043"></trkpt>
      <trkpt lat="46.44650530895469" lon="6.142436006046142"></trkpt>
      <trkpt lat="46.44657000895487" lon="6.141658106045231"></trkpt>
      <trkpt lat="46.44656810895495" lon="6.141330906044855"></trkpt>
      <trkpt lat="46.44649510895495" lon="6.14107800604457"></trkpt>
      <trkpt lat="46.44647980895499" lon="6.140862506044325"></trkpt>
      <trkpt lat="46.44654850895508" lon="6.140668906044087"></trkpt>
      <trkpt lat="46.44656370895511" lon="6.14046720604385"></trkpt>
      <trkpt lat="46.44656630895511" lon="6.140392106043761"></trkpt>
      <trkpt lat="46.44650710895507" lon="6.140290206043656"></trkpt>
      <trkpt lat="46.4464813089551" lon="6.140215106043573"></trkpt>
      <trkpt lat="46.446497908955195" lon="6.139818106043108"></trkpt>
      <trkpt lat="46.44652190895529" lon="6.139528506042769"></trkpt>
      <trkpt lat="46.44650270895531" lon="6.1393070060425154"></trkpt>
      <trkpt lat="46.446479808955324" lon="6.1390867060422645"></trkpt>
      <trkpt lat="46.4463778089553" lon="6.13882570604198"></trkpt>
      <trkpt lat="46.4463002089553" lon="6.138632606041769"></trkpt>
      <trkpt lat="46.44627240895531" lon="6.138471706041585"></trkpt>
      <trkpt lat="46.446226208955366" lon="6.138184706041262"></trkpt>
      <trkpt lat="46.44619370895539" lon="6.137859806040889"></trkpt>
      <trkpt lat="46.44617080895545" lon="6.137500706040479"></trkpt>
      <trkpt lat="46.44613270895546" lon="6.137102606040026"></trkpt>
      <trkpt lat="46.44613650895549" lon="6.136991006039889"></trkpt>
      <trkpt lat="46.44609070895552" lon="6.136706406039569"></trkpt>
      <trkpt lat="46.44606780895556" lon="6.136539906039383"></trkpt>
      <trkpt lat="46.44606020895557" lon="6.136395906039218"></trkpt>
      <trkpt lat="46.44601820895562" lon="6.136195206038991"></trkpt>
      <trkpt lat="46.44594570895559" lon="6.136029706038811"></trkpt>
      <trkpt lat="46.445816008955546" lon="6.135909606038695"></trkpt>
      <trkpt lat="46.44573970895549" lon="6.135810906038591"></trkpt>
      <trkpt lat="46.44562150895546" lon="6.135613406038387"></trkpt>
      <trkpt lat="46.44549940895544" lon="6.1354327060381975"></trkpt>
      <trkpt lat="46.445419308955415" lon="6.135261506038016"></trkpt>
      <trkpt lat="46.44529480895542" lon="6.13506790603781"></trkpt>
      <trkpt lat="46.44512560895535" lon="6.134882506037625"></trkpt>
      <trkpt lat="46.4450188089553" lon="6.1347575060374995"></trkpt>
      <trkpt lat="46.44495650895531" lon="6.134662906037404"></trkpt>
      <trkpt lat="46.44488530895528" lon="6.13453340603726"></trkpt>
      <trkpt lat="46.44486620895526" lon="6.1344399060371595"></trkpt>
      <trkpt lat="46.4448738089553" lon="6.134317406037017"></trkpt>
      <trkpt lat="46.44484710895531" lon="6.134241606036928"></trkpt>
      <trkpt lat="46.44472180895523" lon="6.134123806036813"></trkpt>
      <trkpt lat="46.44457400895518" lon="6.134056806036763"></trkpt>
      <trkpt lat="46.44450190895513" lon="6.134008506036719"></trkpt>
      <trkpt lat="46.444350308955066" lon="6.133874406036594"></trkpt>
      <trkpt lat="46.44406760895493" lon="6.133659806036392"></trkpt>
      <trkpt lat="46.443847608954826" lon="6.133547106036299"></trkpt>
      <trkpt lat="46.4436628089547" lon="6.13353640603632"></trkpt>
      <trkpt lat="46.443568508954655" lon="6.13356590603637"></trkpt>
      <trkpt lat="46.44322660895446" lon="6.133705406036596"></trkpt>
      <trkpt lat="46.44294380895428" lon="6.1337537060367024"></trkpt>
      <trkpt lat="46.442829108954236" lon="6.133649306036595"></trkpt>
      <trkpt lat="46.44261670895412" lon="6.133571306036546"></trkpt>
      <trkpt lat="46.44237520895401" lon="6.133380906036371"></trkpt>
      <trkpt lat="46.44220730895397" lon="6.133261706036264"></trkpt>
      <trkpt lat="46.44211400895387" lon="6.133257506036272"></trkpt>
      <trkpt lat="46.44203570895385" lon="6.133150106036162"></trkpt>
      <trkpt lat="46.44190220895375" lon="6.133216906036262"></trkpt>
      <trkpt lat="46.44174960895368" lon="6.133298906036384"></trkpt>
      <trkpt lat="46.441467308953506" lon="6.133266006036397"></trkpt>
      <trkpt lat="46.44127660895341" lon="6.133242606036402"></trkpt>
      <trkpt lat="46.44116400895334" lon="6.1332682060364485"></trkpt>
      <trkpt lat="46.44099390895323" lon="6.133238706036445"></trkpt>
      <trkpt lat="46.44089040895317" lon="6.133193106036411"></trkpt>
      <trkpt lat="46.44072410895309" lon="6.133193106036439"></trkpt>
      <trkpt lat="46.440596508953014" lon="6.133166306036436"></trkpt>
      <trkpt lat="46.440520708952974" lon="6.133112606036385"></trkpt>
      <trkpt lat="46.440339608952904" lon="6.133107206036413"></trkpt>
      <trkpt lat="46.4401973089528" lon="6.133083106036409"></trkpt>
      <trkpt lat="46.440104908952776" lon="6.133016106036344"></trkpt>
      <trkpt lat="46.43996810895268" lon="6.133029506036386"></trkpt>
      <trkpt lat="46.43987200895261" lon="6.13301870603639"></trkpt>
      <trkpt lat="46.43956700895242" lon="6.132962406036382"></trkpt>
      <trkpt lat="46.43945980895241" lon="6.132932906036362"></trkpt>
      <trkpt lat="46.439387708952346" lon="6.132898006036336"></trkpt>
      <trkpt lat="46.4392103089523" lon="6.132871206036336"></trkpt>
      <trkpt lat="46.439086408952186" lon="6.13283100603631"></trkpt>
      <trkpt lat="46.43892930895213" lon="6.132747806036238"></trkpt>
      <trkpt lat="46.43881290895208" lon="6.132710306036223"></trkpt>
      <trkpt lat="46.438698308952" lon="6.13264860603617"></trkpt>
      <trkpt lat="46.43855670895197" lon="6.132606506036142"></trkpt>
      <trkpt lat="46.438411808951855" lon="6.132517206036064"></trkpt>
      <trkpt lat="46.438308708951844" lon="6.1324196060359695"></trkpt>
      <trkpt lat="46.43819430895177" lon="6.132281806035833"></trkpt>
      <trkpt lat="46.43807600895176" lon="6.132116306035656"></trkpt>
      <trkpt lat="46.438025408951695" lon="6.132149706035706"></trkpt>
      <trkpt lat="46.43799970895172" lon="6.132129206035687"></trkpt>
      <trkpt lat="46.43789600895168" lon="6.131951206035498"></trkpt>
      <trkpt lat="46.437687208951616" lon="6.131666906035204"></trkpt>
      <trkpt lat="46.43751530895157" lon="6.131447006034983"></trkpt>
      <trkpt lat="46.43746910895155" lon="6.131294106034812"></trkpt>
      <trkpt lat="46.43738030895165" lon="6.130497506033902"></trkpt>
      <trkpt lat="46.43734150895163" lon="6.13044650603385"></trkpt>
      <trkpt lat="46.437225308951575" lon="6.130402606033823"></trkpt>
      <trkpt lat="46.43704950895147" lon="6.130438506033894"></trkpt>
      <trkpt lat="46.43690530895135" lon="6.130508206033997"></trkpt>
      <trkpt lat="46.43680920895129" lon="6.130580606034097"></trkpt>
      <trkpt lat="46.4366724089512" lon="6.130695906034257"></trkpt>
      <trkpt lat="46.43654110895111" lon="6.13078710603439"></trkpt>
      <trkpt lat="46.43642470895102" lon="6.130870306034501"></trkpt>
      <trkpt lat="46.43634700895099" lon="6.130932006034594"></trkpt>
      <trkpt lat="46.43628600895091" lon="6.131058006034749"></trkpt>
      <trkpt lat="46.43627870895086" lon="6.131291406035019"></trkpt>
      <trkpt lat="46.436282408950795" lon="6.131645406035428"></trkpt>
      <trkpt lat="46.4362842089507" lon="6.132125606035988"></trkpt>
      <trkpt lat="46.43632120895068" lon="6.13240990603631"></trkpt>
      <trkpt lat="46.43632130895062" lon="6.132673306036619"></trkpt>
      <trkpt lat="46.436283108950555" lon="6.13287120603685"></trkpt>
      <trkpt lat="46.43616870895045" lon="6.1330352060370625"></trkpt>
      <trkpt lat="46.43603130895035" lon="6.133236906037321"></trkpt>
      <trkpt lat="46.43590160895024" lon="6.133487706037639"></trkpt>
      <trkpt lat="46.43583300895015" lon="6.133664106037851"></trkpt>
      <trkpt lat="46.4357944089501" lon="6.133826106038045"></trkpt>
      <trkpt lat="46.435718508950075" lon="6.133845306038082"></trkpt>
      <trkpt lat="46.43561940895001" lon="6.133779006038022"></trkpt>
      <trkpt lat="46.43552780894995" lon="6.133673706037921"></trkpt>
      <trkpt lat="46.43547060894997" lon="6.133481506037704"></trkpt>
      <trkpt lat="46.43540570894993" lon="6.133436706037663"></trkpt>
      <trkpt lat="46.43537140894995" lon="6.1332636060374695"></trkpt>
      <trkpt lat="46.43529890894994" lon="6.133140606037334"></trkpt>
      <trkpt lat="46.43517680894986" lon="6.133072906037281"></trkpt>
      <trkpt lat="46.435104408949876" lon="6.1330028060372115"></trkpt>
      <trkpt lat="46.43500140894978" lon="6.1330018060372335"></trkpt>
      <trkpt lat="46.43495560894978" lon="6.132970806037205"></trkpt>
      <trkpt lat="46.43495180894979" lon="6.132813006037023"></trkpt>
      <trkpt lat="46.43489460894979" lon="6.132717606036916"></trkpt>
      <trkpt lat="46.43482940894977" lon="6.132707606036923"></trkpt>
      <trkpt lat="46.434791608949766" lon="6.132620806036827"></trkpt>
      <trkpt lat="46.434761008949756" lon="6.132492106036685"></trkpt>
      <trkpt lat="46.43472780894973" lon="6.132396506036574"></trkpt>
      <trkpt lat="46.43474580894975" lon="6.1323285060364965"></trkpt>
      <trkpt lat="46.43471910894978" lon="6.132251706036407"></trkpt>
      <trkpt lat="46.43470380894977" lon="6.132171206036318"></trkpt>
      <trkpt lat="46.434600808949725" lon="6.1319880060361225"></trkpt>
      <trkpt lat="46.43459700894976" lon="6.131921806036046"></trkpt>
      <trkpt lat="46.43454360894977" lon="6.131818806035937"></trkpt>
      <trkpt lat="46.4344635089497" lon="6.1317878060359154"></trkpt>
      <trkpt lat="46.43441770894965" lon="6.13182740603597"></trkpt>
      <trkpt lat="46.43442150894965" lon="6.131967106036135"></trkpt>
      <trkpt lat="46.43434910894959" lon="6.132184006036398"></trkpt>
      <trkpt lat="46.434337608949555" lon="6.13223790603646"></trkpt>
      <trkpt lat="46.43432240894951" lon="6.132336106036579"></trkpt>
      <trkpt lat="46.43423460894943" lon="6.132505406036788"></trkpt>
      <trkpt lat="46.43415830894934" lon="6.132773906037111"></trkpt>
      <trkpt lat="46.43411250894927" lon="6.133015606037406"></trkpt>
      <trkpt lat="46.43407060894923" lon="6.133133906037548"></trkpt>
      <trkpt lat="46.43403830894918" lon="6.133257506037701"></trkpt>
      <trkpt lat="46.43403640894914" lon="6.133431806037901"></trkpt>
      <trkpt lat="46.433990508949094" lon="6.133540606038032"></trkpt>
      <trkpt lat="46.43383120894896" lon="6.133812706038379"></trkpt>
      <trkpt lat="46.43370440894884" lon="6.134082306038716"></trkpt>
      <trkpt lat="46.433658608948775" lon="6.134182006038838"></trkpt>
      <trkpt lat="46.43352510894867" lon="6.1344042060391235"></trkpt>
      <trkpt lat="46.43345640894859" lon="6.134622106039381"></trkpt>
      <trkpt lat="46.4333635089485" lon="6.1347622060395635"></trkpt>
      <trkpt lat="46.43325810894843" lon="6.134892906039738"></trkpt>
      <trkpt lat="46.43315890894836" lon="6.134898206039757"></trkpt>
      <trkpt lat="46.43310170894833" lon="6.134838106039697"></trkpt>
      <trkpt lat="46.43297580894829" lon="6.134590606039434"></trkpt>
      <trkpt lat="46.43292170894829" lon="6.134410806039232"></trkpt>
      <trkpt lat="46.432952908948366" lon="6.134083306038851"></trkpt>
      <trkpt lat="46.4329384089484" lon="6.133928006038669"></trkpt>
      <trkpt lat="46.43291250894847" lon="6.133751006038471"></trkpt>
      <trkpt lat="46.43287920894848" lon="6.133657106038362"></trkpt>
      <trkpt lat="46.43281270894839" lon="6.133557906038262"></trkpt>
      <trkpt lat="46.43273540894838" lon="6.133493906038201"></trkpt>
      <trkpt lat="46.43261720894831" lon="6.133477706038205"></trkpt>
      <trkpt lat="46.432503908948256" lon="6.133447906038192"></trkpt>
      <trkpt lat="46.43247070894824" lon="6.133343306038071"></trkpt>
      <trkpt lat="46.43247990894829" lon="6.133144806037842"></trkpt>
      <trkpt lat="46.43252560894837" lon="6.132883506037531"></trkpt>
      <trkpt lat="46.43257420894846" lon="6.132702206037308"></trkpt>
      <trkpt lat="46.432688808948555" lon="6.132436706036984"></trkpt>
      <trkpt lat="46.432755408948616" lon="6.132281106036793"></trkpt>
      <trkpt lat="46.43271470894866" lon="6.131889506036341"></trkpt>
      <trkpt lat="46.432624108948744" lon="6.131337006035716"></trkpt>
      <trkpt lat="46.43258530894873" lon="6.131087506035434"></trkpt>
      <trkpt lat="46.4325021089487" lon="6.130974906035318"></trkpt>
      <trkpt lat="46.43208990894853" lon="6.130701306035076"></trkpt>
      <trkpt lat="46.431927208948466" lon="6.130599406034987"></trkpt>
      <trkpt lat="46.43177030894835" lon="6.130624806035042"></trkpt>
      <trkpt lat="46.43153380894819" lon="6.130660106035125"></trkpt>
      <trkpt lat="46.43142430894817" lon="6.1306208060350995"></trkpt>
      <trkpt lat="46.431333808948125" lon="6.13053230603501"></trkpt>
      <trkpt lat="46.431272808948115" lon="6.130320406034772"></trkpt>
      <trkpt lat="46.43140590894823" lon="6.130046806034433"></trkpt>
      <trkpt lat="46.43145750894834" lon="6.129771706034105"></trkpt>
      <trkpt lat="46.43148350894836" lon="6.129607006033912"></trkpt>
      <trkpt lat="46.431457608948406" lon="6.129486306033775"></trkpt>
      <trkpt lat="46.43140030894838" lon="6.129419206033703"></trkpt>
      <trkpt lat="46.43123250894827" lon="6.129379306033691"></trkpt>
      <trkpt lat="46.43110080894817" lon="6.129357506033689"></trkpt>
      <trkpt lat="46.430973308948154" lon="6.129258306033593"></trkpt>
      <trkpt lat="46.430769908948065" lon="6.12902490603336"></trkpt>
      <trkpt lat="46.43066820894805" lon="6.128874706033203"></trkpt>
      <trkpt lat="46.43067380894804" lon="6.128778206033091"></trkpt>
      <trkpt lat="46.4306719089481" lon="6.128582406032866"></trkpt>
      <trkpt lat="46.430649808948104" lon="6.128381206032631"></trkpt>
    </trkseg>
  </trk>
</gpx>